NORAD_CAT_ID,OBJECT_NAME,OBJECT_TYPE,EPOCH,MEAN_MOTION,ECCENTRICITY,INCLINATION,RA_OF_ASC_NODE,ARG_OF_PERICENTER,MEAN_ANOMALY,BSTAR,MEAN_MOTION_DOT,MEAN_MOTION_DDOT,TLE_LINE0,TLE_LINE1,TLE_LINE2,SEMIMAJOR_AXIS,PERIOD,APOGEE,PERIGEE,DECAYED
51874.0,STARLINK-3574,PAYLOAD,2023-06-23 01:21:38,15.08841588,0.0001124,53.2158,136.2417,77.8959,282.2159,2.5708e-05,1.21e-06,0.0,0 STARLINK-3574,1 51874U 22022Y   23174.05669094  .00000121  00000-0  25708-4 0  9999,2 51874  53.2158 136.2417 0001124  77.8959 282.2159 15.08841588 73555,6917.876,95.437,540.518,538.963,0.0
51874.0,STARLINK-3574,PAYLOAD,2023-06-24 01:12:26,15.08829145,0.0001301,53.217,131.7843,88.0238,272.0904,-9.4894e-06,-4.39e-06,0.0,0 STARLINK-3574,1 51874U 22022Y   23175.05030332 -.00000439  00000-0 -94894-5 0  9994,2 51874  53.2170 131.7843 0001301  88.0238 272.0904 15.08829145 73700,6917.914,95.438,540.679,538.879,0.0
51874.0,STARLINK-3574,PAYLOAD,2023-06-25 02:38:35,15.08849233,0.0001539,53.2169,127.0262,95.7111,264.4056,-1.079e-05,-4.6e-06,0.0,0 STARLINK-3574,1 51874U 22022Y   23176.11013457 -.00000460  00000-0 -10790-4 0  9997,2 51874  53.2169 127.0262 0001539  95.7111 264.4056 15.08849233 73869,6917.852,95.437,540.782,538.653,0.0
51874.0,STARLINK-3574,PAYLOAD,2023-06-26 02:29:23,15.08836214,0.000152,53.2175,122.5639,85.7661,274.3505,9.4047e-05,1.209e-05,0.0,0 STARLINK-3574,1 51874U 22022Y   23177.10373894  .00001209  00000-0  94047-4 0  9998,2 51874  53.2175 122.5639 0001520  85.7661 274.3505 15.08836214 74015,6917.892,95.438,540.808,538.705,0.0
51874.0,STARLINK-3574,PAYLOAD,2023-06-27 05:30:56,15.08844946,0.00013,53.216,117.5083,101.4411,258.6727,-1.9378e-05,-5.96e-06,0.0,0 STARLINK-3574,1 51874U 22022Y   23178.22981701 -.00000596  00000-0 -19378-4 0  9998,2 51874  53.2160 117.5083 0001300 101.4411 258.6727 15.08844946 74181,6917.865,95.437,540.63,538.831,0.0
51874.0,STARLINK-3574,PAYLOAD,2023-06-27 13:27:52,15.08839778,0.0001282,53.2156,116.0216,99.2066,260.9071,-6.9148e-05,-1.388e-05,0.0,0 STARLINK-3574,1 51874U 22022Y   23178.56102135 -.00001388  00000-0 -69148-4 0  9991,2 51874  53.2156 116.0216 0001282  99.2066 260.9071 15.08839778 74238,6917.881,95.438,540.633,538.859,0.0
51874.0,STARLINK-3574,PAYLOAD,2023-06-29 02:01:44,15.08841236,0.0001228,53.2165,109.1822,93.1165,266.9968,4.2242e-05,3.85e-06,0.0,0 STARLINK-3574,1 51874U 22022Y   23180.08453878  .00000385  00000-0  42242-4 0  9994,2 51874  53.2165 109.1822 0001228  93.1165 266.9968 15.08841236 74465,6917.877,95.437,540.591,538.892,0.0
51874.0,STARLINK-3574,PAYLOAD,2023-07-01 01:43:19,15.08834572,0.0001074,53.2172,100.2651,88.9769,271.1346,-9.4342e-05,-1.789e-05,0.0,0 STARLINK-3574,1 51874U 22022Y   23182.07175015 -.00001789  00000-0 -94342-4 0  9998,2 51874  53.2172 100.2651 0001074  88.9769 271.1346 15.08834572 74762,6917.897,95.438,540.505,539.019,0.0
51874.0,STARLINK-3574,PAYLOAD,2023-07-02 01:34:05,15.08842389,0.0001051,53.2179,95.8046,92.0859,268.0253,1.6781e-05,-2.1e-07,0.0,0 STARLINK-3574,1 51874U 22022Y   23183.06534526 -.00000021  00000-0  16781-4 0  9992,2 51874  53.2179  95.8046 0001051  92.0859 268.0253 15.08842389 74911,6917.873,95.437,540.465,539.011,0.0
51874.0,STARLINK-3574,PAYLOAD,2023-07-03 10:57:12,15.0883655,0.0001082,53.2172,89.5567,73.5881,286.523,3.955e-05,3.42e-06,0.0,0 STARLINK-3574,1 51874U 22022Y   23184.45639084  .00000342  00000-0  39550-4 0  9995,2 51874  53.2172  89.5567 0001082  73.5881 286.5230 15.08836550 75122,6917.891,95.438,540.504,539.007,0.0
51874.0,STARLINK-3574,PAYLOAD,2023-07-04 17:09:31,15.08840388,0.0001326,53.2174,83.9077,78.4269,281.6872,5.2254e-05,5.44e-06,0.0,0 STARLINK-3574,1 51874U 22022Y   23185.71494972  .00000544  00000-0  52254-4 0  9990,2 51874  53.2174  83.9077 0001326  78.4269 281.6872 15.08840388 75316,6917.879,95.438,540.662,538.827,0.0
51874.0,STARLINK-3574,PAYLOAD,2023-07-06 02:32:37,15.0884447,0.000125,53.2181,77.6643,90.3866,269.7269,9.047e-06,-1.44e-06,0.0,0 STARLINK-3574,1 51874U 22022Y   23187.10598513 -.00000144  00000-0  90470-5 0  9991,2 51874  53.2181  77.6643 0001250  90.3866 269.7269 15.08844470 75521,6917.867,95.437,540.596,538.867,0.0
51874.0,STARLINK-3574,PAYLOAD,2023-07-07 23:03:25,15.08841009,0.0001256,53.2173,69.3353,87.7391,272.3745,4.7266e-05,4.64e-06,0.0,0 STARLINK-3574,1 51874U 22022Y   23188.96070739  .00000464  00000-0  47266-4 0  9999,2 51874  53.2173  69.3353 0001256  87.7391 272.3745 15.08841009 75802,6917.877,95.437,540.611,538.873,0.0
51874.0,STARLINK-3574,PAYLOAD,2023-07-08 19:43:26,15.08833321,0.0001182,53.218,65.471,94.4676,265.6452,-2.9837e-06,-3.35e-06,0.0,0 STARLINK-3574,1 51874U 22022Y   23189.82183603 -.00000335  00000-0 -29837-5 0  9994,2 51874  53.2180  65.4710 0001182  94.4676 265.6452 15.08833321 75935,6917.901,95.438,540.583,538.948,0.0
51874.0,STARLINK-3574,PAYLOAD,2023-07-10 01:55:46,15.08837315,0.0001096,53.2188,59.8231,97.6947,262.417,1.4817e-05,-5.2e-07,0.0,0 STARLINK-3574,1 51874U 22022Y   23191.08039767 -.00000052  00000-0  14817-4 0  9992,2 51874  53.2188  59.8231 0001096  97.6947 262.4170 15.08837315 76129,6917.889,95.438,540.512,538.995,0.0
51874.0,STARLINK-3574,PAYLOAD,2023-07-11 00:11:09,15.08843243,9.35e-05,53.2182,55.6588,90.867,269.2429,9.6587e-05,1.25e-05,0.0,0 STARLINK-3574,1 51874U 22022Y   23192.00775204  .00001250  00000-0  96587-4 0  9992,2 51874  53.2182  55.6588 0000935  90.8670 269.2429 15.08843243 76265,6917.87,95.437,540.382,539.089,0.0
51874.0,STARLINK-3574,PAYLOAD,2023-07-12 07:58:52,15.08839827,8e-05,53.2173,49.7094,89.8009,270.3075,1.8335e-05,4e-08,0.0,0 STARLINK-3574,1 51874U 22022Y   23193.33255588  .00000004  00000-0  18335-4 0  9998,2 51874  53.2173  49.7094 0000800  89.8009 270.3075 15.08839827 76461,6917.881,95.438,540.299,539.192,0.0
51874.0,STARLINK-3574,PAYLOAD,2023-07-13 17:21:58,15.08839391,0.0001007,53.2182,43.4662,85.4258,274.6849,-4.0811e-05,-9.37e-06,0.0,0 STARLINK-3574,1 51874U 22022Y   23194.72359934 -.00000937  00000-0 -40811-4 0  9993,2 51874  53.2182  43.4662 0001007  85.4258 274.6849 15.08839391 76676,6917.882,95.438,540.444,539.051,0.0
51874.0,STARLINK-3574,PAYLOAD,2023-07-14 23:34:17,15.08848409,0.000101,53.2186,37.8163,83.4818,276.6289,0.00010429,1.373e-05,0.0,0 STARLINK-3574,1 51874U 22022Y   23195.98214923  .00001373  00000-0  10429-3 0  9994,2 51874  53.2186  37.8163 0001010  83.4818 276.6289 15.08848409 76868,6917.855,95.437,540.418,539.021,0.0
51874.0,STARLINK-3574,PAYLOAD,2023-07-15 05:55:51,15.08832219,0.0001023,53.2189,36.6279,95.3385,264.7724,-2.1778e-05,-6.34e-06,0.0,0 STARLINK-3574,1 51874U 22022Y   23196.24712300 -.00000634  00000-0 -21778-4 0  9997,2 51874  53.2189  36.6279 0001023  95.3385 264.7724 15.08832219 76900,6917.904,95.438,540.477,539.061,0.0
51874.0,STARLINK-3574,PAYLOAD,2023-07-15 23:25:05,15.08841044,9.81e-05,53.2189,33.3566,91.1077,269.0028,4.4402e-05,4.19e-06,0.0,0 STARLINK-3574,1 51874U 22022Y   23196.97575805  .00000419  00000-0  44402-4 0  9992,2 51874  53.2189  33.3566 0000981  91.1077 269.0028 15.08841044 77011,6917.877,95.437,540.421,539.064,0.0
51874.0,STARLINK-3574,PAYLOAD,2023-07-16 20:05:06,15.08837117,9.35e-05,53.2184,29.4905,89.8639,270.246,-1.913e-05,-5.92e-06,0.0,0 STARLINK-3574,1 51874U 22022Y   23197.83688547 -.00000592  00000-0 -19130-4 0  9990,2 51874  53.2184  29.4905 0000935  89.8639 270.2460 15.08837117 77140,6917.889,95.438,540.401,539.107,0.0
51874.0,STARLINK-3574,PAYLOAD,2023-07-17 18:20:30,15.08844245,8.97e-05,53.2183,25.3287,93.88,266.2295,0.00011514,1.545e-05,0.0,0 STARLINK-3574,1 51874U 22022Y   23198.76423919  .00001545  00000-0  11514-3 0  9997,2 51874  53.2183  25.3287 0000897  93.8800 266.2295 15.08844245 77285,6917.867,95.437,540.353,539.112,0.0
51874.0,STARLINK-3574,PAYLOAD,2023-07-17 23:06:39,15.08850955,9.45e-05,53.2189,24.4366,96.1381,263.9719,0.00016899,2.404e-05,0.0,0 STARLINK-3574,1 51874U 22022Y   23198.96295331  .00002404  00000-0  16899-3 0  9990,2 51874  53.2189  24.4366 0000945  96.1381 263.9719 15.08850955 77317,6917.847,95.437,540.366,539.058,0.0
51874.0,STARLINK-3574,PAYLOAD,2023-07-18 19:46:41,15.08838907,0.0001281,53.2183,20.5705,72.0609,288.0522,6.9565e-05,8.19e-06,0.0,0 STARLINK-3574,1 51874U 22022Y   23199.82408689  .00000819  00000-0  69565-4 0  9995,2 51874  53.2183  20.5705 0001281  72.0609 288.0522 15.08838907 77442,6917.884,95.438,540.635,538.863,0.0
51874.0,STARLINK-3574,PAYLOAD,2023-07-20 19:28:14,15.08837051,0.0001057,53.2186,11.6478,115.4312,244.679,0.00024503,3.614e-05,0.0,0 STARLINK-3574,1 51874U 22022Y   23201.81128221  .00003614  00000-0  24503-3 0  9997,2 51874  53.2186  11.6478 0001057 115.4312 244.6790 15.08837051 77744,6917.889,95.438,540.486,539.023,0.0
51874.0,STARLINK-3574,PAYLOAD,2023-07-23 19:00:35,15.0885064,0.0001073,53.2192,358.2631,120.8612,239.2486,-3.7326e-05,-8.82e-06,0.0,0 STARLINK-3574,1 51874U 22022Y   23204.79208078 -.00000882  00000-0 -37326-4 0  9990,2 51874  53.2192 358.2631 0001073 120.8612 239.2486 15.08850640 78194,6917.848,95.437,540.455,538.971,0.0
51874.0,STARLINK-3574,PAYLOAD,2023-07-25 12:20:38,15.08834183,9.5e-05,53.2194,350.5329,110.0893,250.0202,-2.0774e-05,-6.18e-06,0.0,0 STARLINK-3574,1 51874U 22022Y   23206.51433321 -.00000618  00000-0 -20774-4 0  9999,2 51874  53.2194 350.5329 0000950 110.0893 250.0202 15.08834183 78450,6917.898,95.438,540.42,539.106,0.0
51874.0,STARLINK-3574,PAYLOAD,2023-07-26 12:11:25,15.08834045,8.7e-05,53.2184,346.0758,81.8658,278.2433,0.0001057,1.395e-05,0.0,0 STARLINK-3574,1 51874U 22022Y   23207.50793234  .00001395  00000-0  10570-3 0  9994,2 51874  53.2184 346.0758 0000870  81.8658 278.2433 15.08834045 78602,6917.899,95.438,540.365,539.162,0.0
51874.0,STARLINK-3574,PAYLOAD,2023-07-26 18:32:57,15.08842161,0.0001497,53.2177,344.8907,52.0881,308.0246,0.00016791,2.385e-05,0.0,0 STARLINK-3574,1 51874U 22022Y   23207.77288743  .00002385  00000-0  16791-3 0  9998,2 51874  53.2177 344.8907 0001497  52.0881 308.0246 15.08842161 78646,6917.874,95.437,540.774,538.703,0.0
